[{"OBJECT_NAME":"ONEWEB-0228","OBJECT_ID":"2021-045P","EPOCH":"2026-03-09T20:10:06.527712","MEAN_MOTION":13.15547002,"ECCENTRICITY":0.00016504,"INCLINATION":87.8947,"RA_OF_ASC_NODE":279.0082,"ARG_OF_PERICENTER":92.7092,"MEAN_ANOMALY":267.4227,"EPHEMERIS_TYPE":0,"CLASSIFICATION_TYPE":"U","NORAD_CAT_ID":48780,"ELEMENT_SET_NO":999,"REV_AT_EPOCH":23126,"BSTAR":-0.00044862781,"MEAN_MOTION_DOT":-1.56e-6,"MEAN_MOTION_DDOT":0},{"OBJECT_NAME":"FENGYUN 1C DEB","OBJECT_ID":"1999-025TT","EPOCH":"2026-03-09T23:37:11.155296","MEAN_MOTION":13.53875669,"ECCENTRICITY":0.03172581,"INCLINATION":99.479,"RA_OF_ASC_NODE":126.5698,"ARG_OF_PERICENTER":130.1058,"MEAN_ANOMALY":352.6205,"EPHEMERIS_TYPE":0,"CLASSIFICATION_TYPE":"U","NORAD_CAT_ID":30162,"ELEMENT_SET_NO":999,"REV_AT_EPOCH":93841,"BSTAR":0.002643324,"MEAN_MOTION_DOT":2.422e-5,"MEAN_MOTION_DDOT":0}]
